[
  {
    "OBJECT_NAME": "STARLINK-11196 [DTC]",
    "OBJECT_ID": "24141L",
    "EPOCH": "2025-11-11T06:36:58.997376",
    "MEAN_MOTION": 15.69723197,
    "ECCENTRICITY": 0.0001505,
    "INCLINATION": 53.1593,
    "RA_OF_ASC_NODE": 310.0706,
    "ARG_OF_PERICENTER": 81.6982,
    "MEAN_ANOMALY": 278.4206,
    "EPHEMERIS_TYPE": 0,
    "CLASSIFICATION_TYPE": "U",
    "NORAD_CAT_ID": 60408,
    "ELEMENT_SET_NO": 999,
    "REV_AT_EPOCH": 7314,
    "BSTAR": 6.3395e-05,
    "MEAN_MOTION_DOT": 7.102e-05,
    "MEAN_MOTION_DDOT": 0.0,
    "TLE_LINE1": "1 60408U 24141L   25315.27568284  .00007102  00000+0  63395-4 0  9997",
    "TLE_LINE2": "2 60408  53.1593 310.0706 0001505  81.6982 278.4206 15.69723197 73142",
    "COMMENT": "Grouped by shell and plane from TLE"
  },
  {
    "OBJECT_NAME": "STARLINK-11174 [DTC]",
    "OBJECT_ID": "24141M",
    "EPOCH": "2025-11-11T06:22:52.063968",
    "MEAN_MOTION": 15.69711127,
    "ECCENTRICITY": 0.0001401,
    "INCLINATION": 53.1591,
    "RA_OF_ASC_NODE": 310.0046,
    "ARG_OF_PERICENTER": 99.1428,
    "MEAN_ANOMALY": 260.9748,
    "EPHEMERIS_TYPE": 0,
    "CLASSIFICATION_TYPE": "U",
    "NORAD_CAT_ID": 60409,
    "ELEMENT_SET_NO": 999,
    "REV_AT_EPOCH": 7309,
    "BSTAR": 4.0489000000000005e-05,
    "MEAN_MOTION_DOT": 4.319e-05,
    "MEAN_MOTION_DDOT": 0.0,
    "TLE_LINE1": "1 60409U 24141M   25315.26588037  .00004319  00000+0  40489-4 0  9991",
    "TLE_LINE2": "2 60409  53.1591 310.0046 0001401  99.1428 260.9748 15.69711127 73093",
    "COMMENT": "Grouped by shell and plane from TLE"
  },
  {
    "OBJECT_NAME": "STARLINK-11602 [DTC]",
    "OBJECT_ID": "25048A",
    "EPOCH": "2025-11-11T06:32:00.009312",
    "MEAN_MOTION": 15.7092837,
    "ECCENTRICITY": 0.0001157,
    "INCLINATION": 42.9995,
    "RA_OF_ASC_NODE": 313.9971,
    "ARG_OF_PERICENTER": 274.3801,
    "MEAN_ANOMALY": 85.6934,
    "EPHEMERIS_TYPE": 0,
    "CLASSIFICATION_TYPE": "U",
    "NORAD_CAT_ID": 63183,
    "ELEMENT_SET_NO": 999,
    "REV_AT_EPOCH": 3951,
    "BSTAR": 0.0021494,
    "MEAN_MOTION_DOT": 0.00286124,
    "MEAN_MOTION_DDOT": 0.0,
    "TLE_LINE1": "1 63183U 25048A   25315.27222233  .00286124  00000+0  21494-2 0  9993",
    "TLE_LINE2": "2 63183  42.9995 313.9971 0001157 274.3801  85.6934 15.70928370 39518",
    "COMMENT": "Grouped by shell and plane from TLE"
  },
  {
    "OBJECT_NAME": "STARLINK-11617 [DTC]",
    "OBJECT_ID": "25048B",
    "EPOCH": "2025-11-11T03:21:15.047136",
    "MEAN_MOTION": 15.70863837,
    "ECCENTRICITY": 0.0004325,
    "INCLINATION": 42.9998,
    "RA_OF_ASC_NODE": 314.721,
    "ARG_OF_PERICENTER": 298.7438,
    "MEAN_ANOMALY": 61.2995,
    "EPHEMERIS_TYPE": 0,
    "CLASSIFICATION_TYPE": "U",
    "NORAD_CAT_ID": 63184,
    "ELEMENT_SET_NO": 999,
    "REV_AT_EPOCH": 3987,
    "BSTAR": 0.0022569,
    "MEAN_MOTION_DOT": 0.00300205,
    "MEAN_MOTION_DDOT": 0.0,
    "TLE_LINE1": "1 63184U 25048B   25315.13975749  .00300205  00000+0  22569-2 0  9997",
    "TLE_LINE2": "2 63184  42.9998 314.7210 0004325 298.7438  61.2995 15.70863837 39875",
    "COMMENT": "Grouped by shell and plane from TLE"
  },
  {
    "OBJECT_NAME": "STARLINK-11618 [DTC]",
    "OBJECT_ID": "25048C",
    "EPOCH": "2025-11-11T07:10:02.937504",
    "MEAN_MOTION": 15.70946033,
    "ECCENTRICITY": 7.62e-05,
    "INCLINATION": 42.9999,
    "RA_OF_ASC_NODE": 313.3135,
    "ARG_OF_PERICENTER": 165.187,
    "MEAN_ANOMALY": 194.902,
    "EPHEMERIS_TYPE": 0,
    "CLASSIFICATION_TYPE": "U",
    "NORAD_CAT_ID": 63185,
    "ELEMENT_SET_NO": 999,
    "REV_AT_EPOCH": 3989,
    "BSTAR": 0.0028854,
    "MEAN_MOTION_DOT": 0.00389426,
    "MEAN_MOTION_DDOT": 0.0,
    "TLE_LINE1": "1 63185U 25048C   25315.29864511  .00389426  00000+0  28854-2 0  9994",
    "TLE_LINE2": "2 63185  42.9999 313.3135 0000762 165.1870 194.9020 15.70946033 39891",
    "COMMENT": "Grouped by shell and plane from TLE"
  },
  {
    "OBJECT_NAME": "STARLINK-11646 [DTC]",
    "OBJECT_ID": "25048D",
    "EPOCH": "2025-11-11T06:54:45.405792",
    "MEAN_MOTION": 15.70931063,
    "ECCENTRICITY": 0.0001167,
    "INCLINATION": 42.9985,
    "RA_OF_ASC_NODE": 313.2261,
    "ARG_OF_PERICENTER": 241.7185,
    "MEAN_ANOMALY": 118.3565,
    "EPHEMERIS_TYPE": 0,
    "CLASSIFICATION_TYPE": "U",
    "NORAD_CAT_ID": 63186,
    "ELEMENT_SET_NO": 999,
    "REV_AT_EPOCH": 3990,
    "BSTAR": 0.0015544,
    "MEAN_MOTION_DOT": 0.00204769,
    "MEAN_MOTION_DDOT": 0.0,
    "TLE_LINE1": "1 63186U 25048D   25315.28802553  .00204769  00000+0  15544-2 0  9990",
    "TLE_LINE2": "2 63186  42.9985 313.2261 0001167 241.7185 118.3565 15.70931063 39909",
    "COMMENT": "Grouped by shell and plane from TLE"
  },
  {
    "OBJECT_NAME": "STARLINK-11622 [DTC]",
    "OBJECT_ID": "25048E",
    "EPOCH": "2025-11-11T06:39:39.011904",
    "MEAN_MOTION": 15.70879275,
    "ECCENTRICITY": 0.0001364,
    "INCLINATION": 42.999,
    "RA_OF_ASC_NODE": 314.0377,
    "ARG_OF_PERICENTER": 253.5346,
    "MEAN_ANOMALY": 106.5372,
    "EPHEMERIS_TYPE": 0,
    "CLASSIFICATION_TYPE": "U",
    "NORAD_CAT_ID": 63187,
    "ELEMENT_SET_NO": 999,
    "REV_AT_EPOCH": 3989,
    "BSTAR": 0.0025822,
    "MEAN_MOTION_DOT": 0.00345606,
    "MEAN_MOTION_DDOT": 0.0,
    "TLE_LINE1": "1 63187U 25048E   25315.27753486  .00345606  00000+0  25822-2 0  9996",
    "TLE_LINE2": "2 63187  42.9990 314.0377 0001364 253.5346 106.5372 15.70879275 39891",
    "COMMENT": "Grouped by shell and plane from TLE"
  },
  {
    "OBJECT_NAME": "STARLINK-11642 [DTC]",
    "OBJECT_ID": "25048F",
    "EPOCH": "2025-11-11T01:34:23.914848",
    "MEAN_MOTION": 15.70839873,
    "ECCENTRICITY": 0.000375,
    "INCLINATION": 42.9995,
    "RA_OF_ASC_NODE": 315.0157,
    "ARG_OF_PERICENTER": 295.2649,
    "MEAN_ANOMALY": 64.783,
    "EPHEMERIS_TYPE": 0,
    "CLASSIFICATION_TYPE": "U",
    "NORAD_CAT_ID": 63188,
    "ELEMENT_SET_NO": 999,
    "REV_AT_EPOCH": 3986,
    "BSTAR": 0.0023413,
    "MEAN_MOTION_DOT": 0.00311542,
    "MEAN_MOTION_DDOT": 0.0,
    "TLE_LINE1": "1 63188U 25048F   25315.06555457  .00311542  00000+0  23413-2 0  9998",
    "TLE_LINE2": "2 63188  42.9995 315.0157 0003750 295.2649  64.7830 15.70839873 39865",
    "COMMENT": "Grouped by shell and plane from TLE"
  },
  {
    "OBJECT_NAME": "STARLINK-11639 [DTC]",
    "OBJECT_ID": "25048G",
    "EPOCH": "2025-11-11T01:19:06.360672",
    "MEAN_MOTION": 15.70950822,
    "ECCENTRICITY": 0.0001621,
    "INCLINATION": 42.9985,
    "RA_OF_ASC_NODE": 314.9292,
    "ARG_OF_PERICENTER": 230.2336,
    "MEAN_ANOMALY": 129.839,
    "EPHEMERIS_TYPE": 0,
    "CLASSIFICATION_TYPE": "U",
    "NORAD_CAT_ID": 63189,
    "ELEMENT_SET_NO": 999,
    "REV_AT_EPOCH": 3986,
    "BSTAR": 0.0033158,
    "MEAN_MOTION_DOT": 0.00451029,
    "MEAN_MOTION_DDOT": 0.0,
    "TLE_LINE1": "1 63189U 25048G   25315.05493473  .00451029  00000+0  33158-2 0  9999",
    "TLE_LINE2": "2 63189  42.9985 314.9292 0001621 230.2336 129.8390 15.70950822 39862",
    "COMMENT": "Grouped by shell and plane from TLE"
  },
  {
    "OBJECT_NAME": "STARLINK-11637 [DTC]",
    "OBJECT_ID": "25048H",
    "EPOCH": "2025-11-11T06:40:57.653184",
    "MEAN_MOTION": 15.70971902,
    "ECCENTRICITY": 0.0001267,
    "INCLINATION": 42.9988,
    "RA_OF_ASC_NODE": 314.0439,
    "ARG_OF_PERICENTER": 223.228,
    "MEAN_ANOMALY": 136.8488,
    "EPHEMERIS_TYPE": 0,
    "CLASSIFICATION_TYPE": "U",
    "NORAD_CAT_ID": 63190,
    "ELEMENT_SET_NO": 999,
    "REV_AT_EPOCH": 3989,
    "BSTAR": 0.0019521,
    "MEAN_MOTION_DOT": 0.00259443,
    "MEAN_MOTION_DDOT": 0.0,
    "TLE_LINE1": "1 63190U 25048H   25315.27844506  .00259443  00000+0  19521-2 0  9996",
    "TLE_LINE2": "2 63190  42.9988 314.0439 0001267 223.2280 136.8488 15.70971902 39898",
    "COMMENT": "Grouped by shell and plane from TLE"
  },
  {
    "OBJECT_NAME": "STARLINK-11647 [DTC]",
    "OBJECT_ID": "25048J",
    "EPOCH": "2025-11-11T01:11:27.472128",
    "MEAN_MOTION": 15.70947024,
    "ECCENTRICITY": 0.0001537,
    "INCLINATION": 42.9997,
    "RA_OF_ASC_NODE": 314.8845,
    "ARG_OF_PERICENTER": 218.6386,
    "MEAN_ANOMALY": 141.4372,
    "EPHEMERIS_TYPE": 0,
    "CLASSIFICATION_TYPE": "U",
    "NORAD_CAT_ID": 63191,
    "ELEMENT_SET_NO": 999,
    "REV_AT_EPOCH": 3986,
    "BSTAR": 0.0027042,
    "MEAN_MOTION_DOT": 0.00363796,
    "MEAN_MOTION_DDOT": 0.0,
    "TLE_LINE1": "1 63191U 25048J   25315.04962352  .00363796  00000+0  27042-2 0  9996",
    "TLE_LINE2": "2 63191  42.9997 314.8845 0001537 218.6386 141.4372 15.70947024 39862",
    "COMMENT": "Grouped by shell and plane from TLE"
  },
  {
    "OBJECT_NAME": "STARLINK-11643 [DTC]",
    "OBJECT_ID": "25048K",
    "EPOCH": "2025-11-11T06:01:25.688928",
    "MEAN_MOTION": 15.70914702,
    "ECCENTRICITY": 0.0001642,
    "INCLINATION": 42.9992,
    "RA_OF_ASC_NODE": 313.8218,
    "ARG_OF_PERICENTER": 275.8974,
    "MEAN_ANOMALY": 84.1707,
    "EPHEMERIS_TYPE": 0,
    "CLASSIFICATION_TYPE": "U",
    "NORAD_CAT_ID": 63192,
    "ELEMENT_SET_NO": 999,
    "REV_AT_EPOCH": 3989,
    "BSTAR": 0.0014349999999999999,
    "MEAN_MOTION_DOT": 0.00188512,
    "MEAN_MOTION_DDOT": 0.0,
    "TLE_LINE1": "1 63192U 25048K   25315.25099177  .00188512  00000+0  14350-2 0  9995",
    "TLE_LINE2": "2 63192  42.9992 313.8218 0001642 275.8974  84.1707 15.70914702 39891",
    "COMMENT": "Grouped by shell and plane from TLE"
  },
  {
    "OBJECT_NAME": "STARLINK-11635 [DTC]",
    "OBJECT_ID": "25048L",
    "EPOCH": "2025-11-11T05:30:50.457888",
    "MEAN_MOTION": 15.70909721,
    "ECCENTRICITY": 0.0002771,
    "INCLINATION": 42.9999,
    "RA_OF_ASC_NODE": 313.6503,
    "ARG_OF_PERICENTER": 294.2543,
    "MEAN_ANOMALY": 65.8035,
    "EPHEMERIS_TYPE": 0,
    "CLASSIFICATION_TYPE": "U",
    "NORAD_CAT_ID": 63193,
    "ELEMENT_SET_NO": 999,
    "REV_AT_EPOCH": 3989,
    "BSTAR": 0.0022009,
    "MEAN_MOTION_DOT": 0.0029301,
    "MEAN_MOTION_DDOT": 0.0,
    "TLE_LINE1": "1 63193U 25048L   25315.22975067  .00293010  00000+0  22009-2 0  9994",
    "TLE_LINE2": "2 63193  42.9999 313.6503 0002771 294.2543  65.8035 15.70909721 39890",
    "COMMENT": "Grouped by shell and plane from TLE"
  }
]